NORAD_CAT_ID,OBJECT_NAME,OBJECT_TYPE,EPOCH,MEAN_MOTION,ECCENTRICITY,INCLINATION,RA_OF_ASC_NODE,ARG_OF_PERICENTER,MEAN_ANOMALY,BSTAR,MEAN_MOTION_DOT,MEAN_MOTION_DDOT,TLE_LINE0,TLE_LINE1,TLE_LINE2,SEMIMAJOR_AXIS,PERIOD,APOGEE,PERIGEE,DECAYED
53980.0,STARLINK-5133,PAYLOAD,2023-06-04 18:28:31,15.08836945,0.0001205,53.2177,68.0535,104.7981,255.3144,3.4323e-06,-2.33e-06,0.0,0 STARLINK-5133,1 53980U 22125S   23155.76980336 -.00000233  00000-0  34323-5 0  9994,2 53980  53.2177  68.0535 0001205 104.7981 255.3144 15.08836945 37156,6917.89,95.438,540.588,538.921,0.0
53980.0,STARLINK-5133,PAYLOAD,2023-06-04 21:39:17,15.08839306,0.0001188,53.2174,67.4591,103.5907,256.5218,2.0453e-05,3.8e-07,0.0,0 STARLINK-5133,1 53980U 22125S   23155.90228141  .00000038  00000-0  20453-4 0  9999,2 53980  53.2174  67.4591 0001188 103.5907 256.5218 15.08839306 37107,6917.883,95.438,540.569,538.926,0.0
53980.0,STARLINK-5133,PAYLOAD,2023-06-05 04:00:49,15.0884209,0.0001142,53.2181,66.272,91.2827,268.8296,3.0087e-05,1.91e-06,0.0,0 STARLINK-5133,1 53980U 22125S   23156.16723993  .00000191  00000-0  30087-4 0  9997,2 53980  53.2181  66.2720 0001142  91.2827 268.8296 15.08842090 37140,6917.874,95.437,540.529,538.949,0.0
53980.0,STARLINK-5133,PAYLOAD,2023-06-05 18:19:18,15.08836012,9.51e-05,53.2164,63.5972,84.8709,275.2392,1.4428e-05,-5.8e-07,0.0,0 STARLINK-5133,1 53980U 22125S   23156.76340490 -.00000058  00000-0  14428-4 0  9994,2 53980  53.2164  63.5972 0000951  84.8709 275.2392 15.08836012 37230,6917.893,95.438,540.415,539.1,0.0
53980.0,STARLINK-5133,PAYLOAD,2023-06-06 02:16:13,15.08841653,0.0001346,53.218,62.1064,112.3182,247.7953,7.3698e-05,8.85e-06,0.0,0 STARLINK-5133,1 53980U 22125S   23157.09459873  .00000885  00000-0  73698-4 0  9998,2 53980  53.2180  62.1064 0001346 112.3182 247.7953 15.08841653 37353,6917.875,95.437,540.671,538.809,0.0
53980.0,STARLINK-5133,PAYLOAD,2023-06-06 03:51:36,15.08845764,0.0001215,53.2186,61.812,101.1946,258.9183,8.5244e-05,1.069e-05,0.0,0 STARLINK-5133,1 53980U 22125S   23157.16083632  .00001069  00000-0  85244-4 0  9997,2 53980  53.2186  61.8120 0001215 101.1946 258.9183 15.08845764 37296,6917.863,95.437,540.568,538.887,0.0
53980.0,STARLINK-5133,PAYLOAD,2023-06-06 18:10:05,15.08833326,0.0001019,53.2166,59.1364,93.5857,266.5252,3.5953e-07,-2.82e-06,0.0,0 STARLINK-5133,1 53980U 22125S   23157.75700878 -.00000282  00000-0  35953-6 0  9991,2 53980  53.2166  59.1364 0001019  93.5857 266.5252 15.08833326 37452,6917.901,95.438,540.471,539.061,0.0
53980.0,STARLINK-5133,PAYLOAD,2023-06-07 03:42:24,15.08838898,0.0001191,53.2184,57.3518,85.9024,274.2104,3.6892e-05,2.99e-06,0.0,0 STARLINK-5133,1 53980U 22125S   23158.15444571  .00000299  00000-0  36892-4 0  9999,2 53980  53.2184  57.3518 0001191  85.9024 274.2104 15.08838898 37513,6917.884,95.438,540.573,538.925,0.0
53980.0,STARLINK-5133,PAYLOAD,2023-06-07 18:00:52,15.08835386,0.0001011,53.2176,54.676,95.4122,264.6985,-3.1821e-05,-7.94e-06,0.0,0 STARLINK-5133,1 53980U 22125S   23158.75061175 -.00000794  00000-0 -31821-4 0  9999,2 53980  53.2176  54.6760 0001011  95.4122 264.6985 15.08835386 37608,6917.894,95.438,540.459,539.06,0.0
53980.0,STARLINK-5133,PAYLOAD,2023-06-08 01:57:48,15.08840226,0.0001048,53.2178,53.1894,96.2716,263.8395,1.0564e-05,-1.2e-06,0.0,0 STARLINK-5133,1 53980U 22125S   23159.08180804 -.00000120  00000-0  10564-4 0  9990,2 53980  53.2178  53.1894 0001048  96.2716 263.8395 15.08840226 37650,6917.88,95.438,540.47,539.02,0.0
53980.0,STARLINK-5133,PAYLOAD,2023-06-09 09:45:31,15.08839409,0.0001125,53.2183,47.238,98.4807,261.6313,1.4674e-05,-5.4e-07,0.0,0 STARLINK-5133,1 53980U 22125S   23160.40660956 -.00000054  00000-0  14674-4 0  9991,2 53980  53.2183  47.2380 0001125  98.4807 261.6313 15.08839409 37850,6917.882,95.438,540.525,538.969,0.0
53980.0,STARLINK-5133,PAYLOAD,2023-06-09 16:07:04,15.08834069,0.000121,53.217,46.0523,94.8229,265.2901,6.3515e-05,7.23e-06,0.0,0 STARLINK-5133,1 53980U 22125S   23160.67157478  .00000723  00000-0  63515-4 0  9990,2 53980  53.2170  46.0523 0001210  94.8229 265.2901 15.08834069 37822,6917.899,95.438,540.601,538.926,0.0
53980.0,STARLINK-5133,PAYLOAD,2023-06-10 09:36:18,15.08842063,0.0001172,53.2178,42.7828,94.5985,265.5141,6.0524e-05,6.76e-06,0.0,0 STARLINK-5133,1 53980U 22125S   23161.40020890  .00000676  00000-0  60524-4 0  9993,2 53980  53.2178  42.7828 0001172  94.5985 265.5141 15.08842063 37938,6917.874,95.437,540.55,538.928,0.0
53980.0,STARLINK-5133,PAYLOAD,2023-06-10 15:57:50,15.08844103,0.0001146,53.2176,41.5937,90.7967,269.3157,-4.2638e-06,-3.56e-06,0.0,0 STARLINK-5133,1 53980U 22125S   23161.66517033 -.00000356  00000-0 -42638-5 0  9995,2 53980  53.2176  41.5937 0001146  90.7967 269.3157 15.08844103 38042,6917.868,95.437,540.526,538.94,0.0
53980.0,STARLINK-5133,PAYLOAD,2023-06-10 22:19:22,15.08848618,0.000111,53.2173,40.4046,94.5311,265.5808,2.1411e-05,5.3e-07,0.0,0 STARLINK-5133,1 53980U 22125S   23161.93012559  .00000053  00000-0  21411-4 0  9995,2 53980  53.2173  40.4046 0001110  94.5311 265.5808 15.08848618 38017,6917.854,95.437,540.487,538.951,0.0
53980.0,STARLINK-5133,PAYLOAD,2023-06-11 09:27:05,15.08844045,0.0001061,53.2164,38.322,102.1806,257.9305,-1.8082e-05,-5.76e-06,0.0,0 STARLINK-5133,1 53980U 22125S   23162.39380794 -.00000576  00000-0 -18082-4 0  9997,2 53980  53.2164  38.3220 0001061 102.1806 257.9305 15.08844045 38081,6917.868,95.437,540.467,538.999,0.0
53980.0,STARLINK-5133,PAYLOAD,2023-06-11 22:10:10,15.0883779,0.0001143,53.2165,35.9435,89.3684,270.7439,6.5664e-05,7.57e-06,0.0,0 STARLINK-5133,1 53980U 22125S   23162.92373091  .00000757  00000-0  65664-4 0  9995,2 53980  53.2165  35.9435 0001143  89.3684 270.7439 15.08837790 38163,6917.887,95.438,540.543,538.961,0.0
53980.0,STARLINK-5133,PAYLOAD,2023-06-12 01:20:56,15.08841847,0.0001333,53.2181,35.3481,90.6709,269.4436,5.3922e-05,5.7e-06,0.0,0 STARLINK-5133,1 53980U 22125S   23163.05620889  .00000570  00000-0  53922-4 0  9997,2 53980  53.2181  35.3481 0001333  90.6709 269.4436 15.08841847 38250,6917.875,95.437,540.662,538.818,0.0
53980.0,STARLINK-5133,PAYLOAD,2023-06-12 22:00:57,15.08839044,0.0001218,53.219,31.4817,96.9389,263.1741,5.0223e-05,5.12e-06,0.0,0 STARLINK-5133,1 53980U 22125S   23163.91733028  .00000512  00000-0  50223-4 0  9999,2 53980  53.2190  31.4817 0001218  96.9389 263.1741 15.08839044 38318,6917.883,95.438,540.591,538.906,0.0
53980.0,STARLINK-5133,PAYLOAD,2023-06-13 15:30:12,15.08835287,0.0001075,53.2182,28.2111,89.7883,270.3232,2.9438e-05,1.81e-06,0.0,0 STARLINK-5133,1 53980U 22125S   23164.64597382  .00000181  00000-0  29438-4 0  9997,2 53980  53.2182  28.2111 0001075  89.7883 270.3232 15.08835287 38499,6917.895,95.438,540.503,539.016,0.0
53980.0,STARLINK-5133,PAYLOAD,2023-06-13 21:51:44,15.08835369,0.0001133,53.2191,27.0255,82.6106,277.5015,6.9763e-05,8.23e-06,0.0,0 STARLINK-5133,1 53980U 22125S   23164.91093359  .00000823  00000-0  69763-4 0  9990,2 53980  53.2191  27.0255 0001133  82.6106 277.5015 15.08835369 38466,6917.895,95.438,540.543,538.976,0.0
53980.0,STARLINK-5133,PAYLOAD,2023-06-14 01:02:30,15.08842605,0.0001079,53.218,26.4283,86.8239,273.2877,2.4875e-05,1.08e-06,0.0,0 STARLINK-5133,1 53980U 22125S   23165.04341026  .00000108  00000-0  24875-4 0  9993,2 53980  53.2180  26.4283 0001079  86.8239 273.2877 15.08842605 38550,6917.872,95.437,540.484,538.991,0.0
53980.0,STARLINK-5133,PAYLOAD,2023-06-14 15:20:59,15.08833531,0.0001056,53.218,23.7517,96.8544,263.2568,-5.8025e-06,-3.8e-06,0.0,0 STARLINK-5133,1 53980U 22125S   23165.63957842 -.00000380  00000-0 -58025-5 0  9996,2 53980  53.2180  23.7517 0001056  96.8544 263.2568 15.08833531 38649,6917.9,95.438,540.496,539.035,0.0
53980.0,STARLINK-5133,PAYLOAD,2023-06-14 21:42:31,15.08842097,8.88e-05,53.2176,22.5617,89.203,270.9063,1.9079e-05,1.6e-07,0.0,0 STARLINK-5133,1 53980U 22125S   23165.90453210  .00000016  00000-0  19079-4 0  9995,2 53980  53.2176  22.5617 0000888  89.2030 270.9063 15.08842097 38619,6917.874,95.437,540.353,539.125,0.0
53980.0,STARLINK-5133,PAYLOAD,2023-06-14 23:17:54,15.0883993,0.0001063,53.2179,22.2646,84.2266,275.8847,2.4827e-06,-2.48e-06,0.0,0 STARLINK-5133,1 53980U 22125S   23165.97077439 -.00000248  00000-0  24827-5 0  9993,2 53980  53.2179  22.2646 0001063  84.2266 275.8847 15.08839930 38697,6917.881,95.438,540.481,539.01,0.0
53980.0,STARLINK-5133,PAYLOAD,2023-06-15 13:36:23,15.08835691,0.0001029,53.2178,19.5896,94.4716,265.6394,3.7085e-05,3.02e-06,0.0,0 STARLINK-5133,1 53980U 22125S   23166.56693769  .00000302  00000-0  37085-4 0  9998,2 53980  53.2178  19.5896 0001029  94.4716 265.6394 15.08835691 38714,6917.894,95.438,540.47,539.047,0.0
53980.0,STARLINK-5133,PAYLOAD,2023-06-15 18:22:32,15.08836835,0.0001026,53.2192,18.697,87.3842,272.7267,4.4482e-05,4.2e-06,0.0,0 STARLINK-5133,1 53980U 22125S   23166.76565769  .00000420  00000-0  44482-4 0  9998,2 53980  53.2192  18.6970 0001026  87.3842 272.7267 15.08836835 38743,6917.89,95.438,540.465,539.045,0.0
53980.0,STARLINK-5133,PAYLOAD,2023-06-16 08:41:00,15.08842035,0.0001049,53.2174,16.0194,86.4847,273.6265,0.00010658,1.409e-05,0.0,0 STARLINK-5133,1 53980U 22125S   23167.36181294  .00001409  00000-0  10658-3 0  9997,2 53980  53.2174  16.0194 0001049  86.4847 273.6265 15.08842035 38908,6917.874,95.437,540.465,539.013,0.0
53980.0,STARLINK-5133,PAYLOAD,2023-06-16 18:13:18,15.08850288,0.0001025,53.2178,14.2357,93.9547,266.1562,0.00014577,2.034e-05,0.0,0 STARLINK-5133,1 53980U 22125S   23167.75924539  .00002034  00000-0  14577-3 0  9996,2 53980  53.2178  14.2357 0001025  93.9547 266.1562 15.08850288 38891,6917.849,95.437,540.423,539.005,0.0
53980.0,STARLINK-5133,PAYLOAD,2023-06-16 21:24:04,15.08856654,9.94e-05,53.2178,13.6411,89.7382,270.3724,0.00017086,2.434e-05,0.0,0 STARLINK-5133,1 53980U 22125S   23167.89172080  .00002434  00000-0  17086-3 0  9999,2 53980  53.2178  13.6411 0000994  89.7382 270.3724 15.08856654 38989,6917.829,95.437,540.382,539.007,0.0
